[{"OBJECT_NAME":"STARLINK-30218","OBJECT_ID":"2023-119C","EPOCH":"2026-03-09T22:00:01.999584","MEAN_MOTION":15.18457139,"ECCENTRICITY":0.00017218,"INCLINATION":43.0002,"RA_OF_ASC_NODE":79.8846,"ARG_OF_PERICENTER":291.5867,"MEAN_ANOMALY":147.4307,"EPHEMERIS_TYPE":0,"CLASSIFICATION_TYPE":"U","NORAD_CAT_ID":57604,"ELEMENT_SET_NO":999,"REV_AT_EPOCH":567,"BSTAR":0.057976743,"MEAN_MOTION_DOT":0.01319901,"MEAN_MOTION_DDOT":0},{"OBJECT_NAME":"SL-3 R\/B","OBJECT_ID":"1983-003B","EPOCH":"2026-03-09T21:31:00.897888","MEAN_MOTION":15.34640469,"ECCENTRICITY":0.00285789,"INCLINATION":81.155,"RA_OF_ASC_NODE":261.9078,"ARG_OF_PERICENTER":155.4571,"MEAN_ANOMALY":204.8036,"EPHEMERIS_TYPE":0,"CLASSIFICATION_TYPE":"U","NORAD_CAT_ID":13771,"ELEMENT_SET_NO":999,"REV_AT_EPOCH":35642,"BSTAR":0.00033440366,"MEAN_MOTION_DOT":0.00011405,"MEAN_MOTION_DDOT":0}]
